{"type": "FeatureCollection", "features": [ {"type": "Feature", "properties": {"norad_id": 30386, "name": "FENGYUN 1C DEB", "group": "fengyun-1c-debris", "lat": -81.16903754837121, "lon": -43.223810116284525, "alt_km": 1094.2354631908956, "timestamp": "2025-12-06T22:38:43.004334+00:00", "meta": {"OBJECT_NAME": "FENGYUN 1C DEB", "OBJECT_ID": "1999-025ACZ", "EPOCH": "2025-12-06T11:33:43.079040", "MEAN_MOTION": 13.55546641, "ECCENTRICITY": 0.03035267, "INCLINATION": 98.6903, "RA_OF_ASC_NODE": 236.498, "ARG_OF_PERICENTER": 172.1086, "MEAN_ANOMALY": 3.6122, "EPHEMERIS_TYPE": 0, "CLASSIFICATION_TYPE": "U", "NORAD_CAT_ID": 30386, "ELEMENT_SET_NO": 999, "REV_AT_EPOCH": 92744, "BSTAR": 0.0022055605, "MEAN_MOTION_DOT": 2.024e-05, "MEAN_MOTION_DDOT": 0}, "tle": {"line1": "1 30386U 99025ACZ 25340.48174860  .00002024  00000+0  22056-2 0  9991", "line2": "2 30386  98.6903 236.4980 0303526 172.1086   3.6122 13.55546641927443"}}, "geometry": {"type": "Point", "coordinates": [-43.223810116284525, -81.16903754837121]}}, {"type": "Feature", "properties": {"norad_id": 30387, "name": "FENGYUN 1C DEB", "group": "fengyun-1c-debris", "lat": -28.61143484451119, "lon": 171.41884622675119, "alt_km": 848.2697168228724, "timestamp": "2025-12-06T22:38:43.004345+00:00", "meta": {"OBJECT_NAME": "FENGYUN 1C DEB", "OBJECT_ID": "1999-025ADA", "EPOCH": "2025-12-06T06:40:27.279264", "MEAN_MOTION": 14.15043052, "ECCENTRICITY": 0.00011776, "INCLINATION": 98.657, "RA_OF_ASC_NODE": 355.5402, "ARG_OF_PERICENTER": 99.1215, "MEAN_ANOMALY": 321.6784, "EPHEMERIS_TYPE": 0, "CLASSIFICATION_TYPE": "U", "NORAD_CAT_ID": 30387, "ELEMENT_SET_NO": 999, "REV_AT_EPOCH": 97233, "BSTAR": 0.0004595892, "MEAN_MOTION_DOT": 8.48e-06, "MEAN_MOTION_DDOT": 0}, "tle": {"line1": "1 30387U 99025ADA 25340.27809351  .00000848  00000+0  45959-3 0  9999", "line2": "2 30387  98.6570 355.5402 0001177  99.1215 321.6784 14.15043052972335"}}, "geometry": {"type": "Point", "coordinates": [171.41884622675119, -28.61143484451119]}}, {"type": "Feature", "properties": {"norad_id": 30388, "name": "FENGYUN 1C DEB", "group": "fengyun-1c-debris", "lat": 22.259081048203402, "lon": -1.7798854645101405, "alt_km": 735.833400858488, "timestamp": "2025-12-06T22:38:43.004355+00:00", "meta": {"OBJECT_NAME": "FENGYUN 1C DEB", "OBJECT_ID": "1999-025ADB", "EPOCH": "2025-12-06T07:52:13.260864", "MEAN_MOTION": 14.19747127, "ECCENTRICITY": 0.02223324, "INCLINATION": 98.5997, "RA_OF_ASC_NODE": 1.1726, "ARG_OF_PERICENTER": 81.2868, "MEAN_ANOMALY": 38.7366, "EPHEMERIS_TYPE": 0, "CLASSIFICATION_TYPE": "U", "NORAD_CAT_ID": 30388, "ELEMENT_SET_NO": 999, "REV_AT_EPOCH": 97341, "BSTAR": 0.00081828184, "MEAN_MOTION_DOT": 2.175e-05, "MEAN_MOTION_DDOT": 0}, "tle": {"line1": "1 30388U 99025ADB 25340.32793126  .00002175  00000+0  81828-3 0  9998", "line2": "2 30388  98.5997   1.1726 0222332  81.2868  38.7366 14.19747127973415"}}, "geometry": {"type": "Point", "coordinates": [-1.7798854645101405, 22.259081048203402]}}, {"type": "Feature", "properties": {"norad_id": 30389, "name": "FENGYUN 1C DEB", "group": "fengyun-1c-debris", "lat": -72.54883976913221, "lon": 91.6283442589573, "alt_km": 746.373764805413, "timestamp": "2025-12-06T22:38:43.004365+00:00", "meta": {"OBJECT_NAME": "FENGYUN 1C DEB", "OBJECT_ID": "1999-025ADC", "EPOCH": "2025-12-05T19:15:00.385920", "MEAN_MOTION": 14.43888336, "ECCENTRICITY": 0.00138962, "INCLINATION": 98.8389, "RA_OF_ASC_NODE": 60.7745, "ARG_OF_PERICENTER": 239.2978, "MEAN_ANOMALY": 235.722, "EPHEMERIS_TYPE": 0, "CLASSIFICATION_TYPE": "U", "NORAD_CAT_ID": 30389, "ELEMENT_SET_NO": 999, "REV_AT_EPOCH": 97686, "BSTAR": 0.0042540865, "MEAN_MOTION_DOT": 0.00014506, "MEAN_MOTION_DDOT": 0}, "tle": {"line1": "1 30389U 99025ADC 25339.80208780  .00014506  00000+0  42541-2 0  9996", "line2": "2 30389  98.8389  60.7745 0013896 239.2978 235.7220 14.43888336976861"}}, "geometry": {"type": "Point", "coordinates": [91.6283442589573, -72.54883976913221]}}, {"type": "Feature", "properties": {"norad_id": 30390, "name": "FENGYUN 1C DEB", "group": "fengyun-1c-debris", "lat": 63.10140697405978, "lon": 46.244907295560466, "alt_km": 808.5220483656985, "timestamp": "2025-12-06T22:38:43.004374+00:00", "meta": {"OBJECT_NAME": "FENGYUN 1C DEB", "OBJECT_ID": "1999-025ADD", "EPOCH": "2025-12-06T05:37:20.853696", "MEAN_MOTION": 14.29633922, "ECCENTRICITY": 0.00681102, "INCLINATION": 98.8242, "RA_OF_ASC_NODE": 63.3576, "ARG_OF_PERICENTER": 183.4474, "MEAN_ANOMALY": 193.3792, "EPHEMERIS_TYPE": 0, "CLASSIFICATION_TYPE": "U", "NORAD_CAT_ID": 30390, "ELEMENT_SET_NO": 999, "REV_AT_EPOCH": 97291, "BSTAR": 0.0032049458, "MEAN_MOTION_DOT": 8.381e-05, "MEAN_MOTION_DDOT": 0}, "tle": {"line1": "1 30390U 99025ADD 25340.23426914  .00008381  00000+0  32049-2 0  9994", "line2": "2 30390  98.8242  63.3576 0068110 183.4474 193.3792 14.29633922972910"}}, "geometry": {"type": "Point", "coordinates": [46.244907295560466, 63.10140697405978]}}, {"type": "Feature", "properties": {"norad_id": 30391, "name": "FENGYUN 1C DEB", "group": "fengyun-1c-debris", "lat": -76.50061026966534, "lon": 166.94818364843002, "alt_km": 796.9787201146255, "timestamp": "2025-12-06T22:38:43.004385+00:00", "meta": {"OBJECT_NAME": "FENGYUN 1C DEB", "OBJECT_ID": "1999-025ADE", "EPOCH": "2025-12-06T15:13:32.121120", "MEAN_MOTION": 14.16196683, "ECCENTRICITY": 0.00711355, "INCLINATION": 98.7811, "RA_OF_ASC_NODE": 26.7232, "ARG_OF_PERICENTER": 279.6479, "MEAN_ANOMALY": 205.0259, "EPHEMERIS_TYPE": 0, "CLASSIFICATION_TYPE": "U", "NORAD_CAT_ID": 30391, "ELEMENT_SET_NO": 999, "REV_AT_EPOCH": 96792, "BSTAR": 0.001961725, "MEAN_MOTION_DOT": 3.937e-05, "MEAN_MOTION_DDOT": 0}, "tle": {"line1": "1 30391U 99025ADE 25340.63439955  .00003937  00000+0  19617-2 0  9996", "line2": "2 30391  98.7811  26.7232 0071135 279.6479 205.0259 14.16196683967926"}}, "geometry": {"type": "Point", "coordinates": [166.94818364843002, -76.50061026966534]}}, {"type": "Feature", "properties": {"norad_id": 30392, "name": "FENGYUN 1C DEB", "group": "fengyun-1c-debris", "lat": 72.50915868867888, "lon": -29.70612873264861, "alt_km": 796.8830140414448, "timestamp": "2025-12-06T22:38:43.004395+00:00", "meta": {"OBJECT_NAME": "FENGYUN 1C DEB", "OBJECT_ID": "1999-025ADF", "EPOCH": "2025-12-06T07:14:14.155872", "MEAN_MOTION": 14.07428109, "ECCENTRICITY": 0.0181362, "INCLINATION": 98.786, "RA_OF_ASC_NODE": 359.061, "ARG_OF_PERICENTER": 15.0271, "MEAN_ANOMALY": 46.9575, "EPHEMERIS_TYPE": 0, "CLASSIFICATION_TYPE": "U", "NORAD_CAT_ID": 30392, "ELEMENT_SET_NO": 999, "REV_AT_EPOCH": 96580, "BSTAR": 0.0011734635, "MEAN_MOTION_DOT": 2.252e-05, "MEAN_MOTION_DDOT": 0}, "tle": {"line1": "1 30392U 99025ADF 25340.30155273  .00002252  00000+0  11735-2 0  9991", "line2": "2 30392  98.7860 359.0610 0181362  15.0271  46.9575 14.07428109965808"}}, "geometry": {"type": "Point", "coordinates": [-29.70612873264861, 72.50915868867888]}}, {"type": "Feature", "properties": {"norad_id": 30393, "name": "FENGYUN 1C DEB", "group": "fengyun-1c-debris", "lat": -17.079967966432424, "lon": 41.573467619584676, "alt_km": 881.8848047841875, "timestamp": "2025-12-06T22:38:43.004405+00:00", "meta": {"OBJECT_NAME": "FENGYUN 1C DEB", "OBJECT_ID": "1999-025ADG", "EPOCH": "2025-12-06T02:16:16.669632", "MEAN_MOTION": 13.98975829, "ECCENTRICITY": 0.00695493, "INCLINATION": 99.1648, "RA_OF_ASC_NODE": 37.8816, "ARG_OF_PERICENTER": 278.3712, "MEAN_ANOMALY": 110.6261, "EPHEMERIS_TYPE": 0, "CLASSIFICATION_TYPE": "U", "NORAD_CAT_ID": 30393, "ELEMENT_SET_NO": 999, "REV_AT_EPOCH": 96237, "BSTAR": 0.00042397726, "MEAN_MOTION_DOT": 5.8e-06, "MEAN_MOTION_DDOT": 0}, "tle": {"line1": "1 30393U 99025ADG 25340.09463738  .00000580  00000+0  42398-3 0  9998", "line2": "2 30393  99.1648  37.8816 0069549 278.3712 110.6261 13.98975829962378"}}, "geometry": {"type": "Point", "coordinates": [41.573467619584676, -17.079967966432424]}}, {"type": "Feature", "properties": {"norad_id": 30394, "name": "FENGYUN 1C DEB", "group": "fengyun-1c-debris", "lat": 16.85822198864015, "lon": 6.181479209961738, "alt_km": 919.420983947517, "timestamp": "2025-12-06T22:38:43.004415+00:00", "meta": {"OBJECT_NAME": "FENGYUN 1C DEB", "OBJECT_ID": "1999-025ADH", "EPOCH": "2025-12-06T16:16:28.920000", "MEAN_MOTION": 13.95779231, "ECCENTRICITY": 0.00899679, "INCLINATION": 99.4354, "RA_OF_ASC_NODE": 8.7981, "ARG_OF_PERICENTER": 117.6815, "MEAN_ANOMALY": 7.4698, "EPHEMERIS_TYPE": 0, "CLASSIFICATION_TYPE": "U", "NORAD_CAT_ID": 30394, "ELEMENT_SET_NO": 999, "REV_AT_EPOCH": 96019, "BSTAR": 0.00064948965, "MEAN_MOTION_DOT": 8.71e-06, "MEAN_MOTION_DDOT": 0}, "tle": {"line1": "1 30394U 99025ADH 25340.67811250  .00000871  00000+0  64949-3 0  9998", "line2": "2 30394  99.4354   8.7981 0089967 117.6815   7.4698 13.95779231960192"}}, "geometry": {"type": "Point", "coordinates": [6.181479209961738, 16.85822198864015]}}, {"type": "Feature", "properties": {"norad_id": 30395, "name": "FENGYUN 1C DEB", "group": "fengyun-1c-debris", "lat": 27.61823178951463, "lon": -178.6091273675794, "alt_km": 942.0782126885779, "timestamp": "2025-12-06T22:38:43.004425+00:00", "meta": {"OBJECT_NAME": "FENGYUN 1C DEB", "OBJECT_ID": "1999-025ADJ", "EPOCH": "2025-12-06T12:20:27.503808", "MEAN_MOTION": 13.96678661, "ECCENTRICITY": 0.01607722, "INCLINATION": 98.931, "RA_OF_ASC_NODE": 356.2548, "ARG_OF_PERICENTER": 43.2938, "MEAN_ANOMALY": 109.2922, "EPHEMERIS_TYPE": 0, "CLASSIFICATION_TYPE": "U", "NORAD_CAT_ID": 30395, "ELEMENT_SET_NO": 999, "REV_AT_EPOCH": 95936, "BSTAR": 0.00092956629, "MEAN_MOTION_DOT": 1.395e-05, "MEAN_MOTION_DDOT": 0}, "tle": {"line1": "1 30395U 99025ADJ 25340.51420722  .00001395  00000+0  92957-3 0  9994", "line2": "2 30395  98.9310 356.2548 0160772  43.2938 109.2922 13.96678661959367"}}, "geometry": {"type": "Point", "coordinates": [-178.6091273675794, 27.61823178951463]}}]}